USA 119                 
1 23893U 96029A   26068.41677233  .00001640  00000+0  29026-3 0  9998
2 23893  63.3196  93.1190 0846389  47.6314 319.3281 13.45886981 91843
STARLINK-5660           
1 55335U 23013E   26068.07554763  .00000287  00000+0  36285-4 0  9993
2 55335  43.0036 303.9656 0001080 274.6932  85.3787 15.02536319171612
