[{"OBJECT_NAME":"USA 119","OBJECT_ID":"1996-029A","EPOCH":"2026-03-09T10:00:09.129312","MEAN_MOTION":13.45886981,"ECCENTRICITY":0.0846389,"INCLINATION":63.3196,"RA_OF_ASC_NODE":93.119,"ARG_OF_PERICENTER":47.6314,"MEAN_ANOMALY":319.3281,"EPHEMERIS_TYPE":0,"CLASSIFICATION_TYPE":"U","NORAD_CAT_ID":23893,"ELEMENT_SET_NO":999,"REV_AT_EPOCH":9184,"BSTAR":0.00029025737,"MEAN_MOTION_DOT":1.64e-5,"MEAN_MOTION_DDOT":0},{"OBJECT_NAME":"STARLINK-5660","OBJECT_ID":"2023-013E","EPOCH":"2026-03-09T01:48:47.315232","MEAN_MOTION":15.02536319,"ECCENTRICITY":0.00010805,"INCLINATION":43.0036,"RA_OF_ASC_NODE":303.9656,"ARG_OF_PERICENTER":274.6932,"MEAN_ANOMALY":85.3787,"EPHEMERIS_TYPE":0,"CLASSIFICATION_TYPE":"U","NORAD_CAT_ID":55335,"ELEMENT_SET_NO":999,"REV_AT_EPOCH":17161,"BSTAR":3.6284553e-5,"MEAN_MOTION_DOT":2.87e-6,"MEAN_MOTION_DDOT":0}]
